DMSP 5D-3 F18 (USA 210) 
1 35951U 09057A   26115.95216805  .00000284  00000+0  17037-3 0  9999
2 35951  98.9016  96.8439 0011922  43.8558 316.3560 14.14865963852203
PROBA-2                 
1 36037U 09059B   26115.76434153  .00000171  00000+0  50301-4 0  9991
2 36037  98.2451 299.8446 0014569  83.6741 276.6115 14.54839118873905
YAOGAN-7                
1 36110U 09069A   26115.68827116  .00000413  00000+0  64343-4 0  9990
2 36110  98.0136   1.8631 0023934 205.8382 154.1635 14.77956096881879
XIWANG-1 (HOPE-1)       
1 36122U 09072B   26115.88049206 -.00000329  00000+0 -74428-3 0  9997
2 36122 100.3988  70.5582 0007557 358.5441   1.5648 13.16436689786121
RADUGA-1M 2             
1 36358U 10002A   26115.67701313 -.00000083  00000+0  00000+0 0  9991
2 36358   3.4863  79.4844 0007431 261.4386 311.7887  0.98968343 49505
COSMOS 2463             
1 36519U 10017A   26115.97137008  .00000061  00000+0  51671-4 0  9993
2 36519  82.9570 288.0793 0034795 275.1458 195.3332 13.71662097800774
CARTOSAT-2B             
1 36795U 10035A   26115.89483763  .00000313  00000+0  49817-4 0  9991
2 36795  98.0000 166.7659 0011384   7.4008 352.7369 14.78661146852122
AISSAT 1                
1 36797U 10035C   26115.68141206  .00001546  00000+0  13927-3 0  9994
2 36797  98.0977  13.0708 0007554 225.5126 134.5478 14.97140405856362
TISAT 1                 
1 36799U 10035E   26115.81938682  .00022703  00000+0  79083-3 0  9996
2 36799  98.0676  57.8202 0004712  80.5731 279.6040 15.29673687859693
YAOGAN-10               
1 36834U 10038A   26116.00543046  .00000623  00000+0  79017-4 0  9992
2 36834  97.9027 139.8226 0001342  85.8281 336.1835 14.85180793849469
SHIJIAN-6 04B (SJ-6 04B)
1 37180U 10051B   26115.96537756  .00001729  00000+0  14667-3 0  9994
2 37180  97.8734 120.8359 0013174 117.5168 242.7395 14.99225372847850
FENGYUN 3B              
1 37214U 10059A   26115.97316822  .00000201  00000+0  12734-3 0  9997
2 37214  98.9673 161.7544 0021671 337.4766  90.8496 14.14829704800040
COSMO-SKYMED 4          
1 37216U 10060A   26115.92057791  .00000415  00000+0  58664-4 0  9993
2 37216  97.8892 300.2769 0001370  77.3797 282.7569 14.82159919836827
O/OREOS (USA 219)       
1 37224U 10062C   26115.62091183  .00001855  00000+0  18170-3 0  9990
2 37224  71.9703 199.3874 0014273 174.5038 185.6292 14.93526406108791
ELEKTRO-L 1 (GOMS 2)    
1 37344U 11001A   26115.83451251 -.00000182  00000+0  00000+0 0  9998
2 37344   9.5706  55.0294 0003964  17.6204 351.8176  1.00159298 55968
RESOURCESAT-2           
1 37387U 11015A   26115.93545853  .00000112  00000+0  71021-4 0  9991
2 37387  98.7667 183.7311 0012124  52.7862 307.4420 14.21599244778752
